{
  "type": "FeatureCollection",
  "features": [
    {
      "type": "Feature",
      "properties": {
        "norad_id": 63772,
        "name": "BIOMASS",
        "group": "resource",
        "lat": 11.1171924800846,
        "lon": 167.077371658021,
        "alt_km": 670.0466248467092,
        "timestamp": "2025-12-09T14:52:25.823936+00:00",
        "meta_object_name": "BIOMASS",
        "meta_object_id": "2025-090A",
        "meta_epoch": "2025-12-09T01:43:54.455520",
        "meta_mean_motion": 14.6753205,
        "meta_eccentricity": 0.00012027,
        "meta_inclination": 98.0699,
        "meta_ra_of_asc_node": 168.1356,
        "meta_arg_of_pericenter": 79.0989,
        "meta_mean_anomaly": 281.035,
        "meta_ephemeris_type": 0,
        "meta_classification_type": "U",
        "meta_norad_cat_id": 63772,
        "meta_element_set_no": 999,
        "meta_rev_at_epoch": 3280,
        "meta_bstar": 0.00037862402,
        "meta_mean_motion_dot": 2.099e-05,
        "meta_mean_motion_ddot": 0,
        "tle_line1": "1 63772U 25090A   25343.07215805  .00002099  00000+0  37862-3 0  9994",
        "tle_line2": "2 63772  98.0699 168.1356 0001202  79.0989 281.0350 14.67532050 32800"
      },
      "geometry": {
        "type": "Point",
        "coordinates": [
          167.077371658021,
          11.1171924800846
        ]
      }
    },
    {
      "type": "Feature",
      "properties": {
        "norad_id": 64694,
        "name": "GOSAT-GW (IBUKI GW)",
        "group": "resource",
        "lat": -40.24443372632642,
        "lon": 92.31614526571742,
        "alt_km": 676.1883826326502,
        "timestamp": "2025-12-09T14:52:25.823946+00:00",
        "meta_object_name": "GOSAT-GW (IBUKI GW)",
        "meta_object_id": "2025-141A",
        "meta_epoch": "2025-12-08T18:14:08.043648",
        "meta_mean_motion": 14.67565462,
        "meta_eccentricity": 0.00014946,
        "meta_inclination": 98.0423,
        "meta_ra_of_asc_node": 278.345,
        "meta_arg_of_pericenter": 82.5316,
        "meta_mean_anomaly": 277.6059,
        "meta_ephemeris_type": 0,
        "meta_classification_type": "U",
        "meta_norad_cat_id": 64694,
        "meta_element_set_no": 999,
        "meta_rev_at_epoch": 2391,
        "meta_bstar": 0.00038232231,
        "meta_mean_motion_dot": 2.122e-05,
        "meta_mean_motion_ddot": 0,
        "tle_line1": "1 64694U 25141A   25342.75981532  .00002122  00000+0  38232-3 0  9995",
        "tle_line2": "2 64694  98.0423 278.3450 0001494  82.5316 277.6059 14.67565462 23916"
      },
      "geometry": {
        "type": "Point",
        "coordinates": [
          92.31614526571742,
          -40.24443372632642
        ]
      }
    },
    {
      "type": "Feature",
      "properties": {
        "norad_id": 64876,
        "name": "IONOSFERA-M 3",
        "group": "resource",
        "lat": 19.910916138868156,
        "lon": -57.55967732624223,
        "alt_km": 819.3121094943763,
        "timestamp": "2025-12-09T14:52:25.823956+00:00",
        "meta_object_name": "IONOSFERA-M 3",
        "meta_object_id": "2025-155A",
        "meta_epoch": "2025-12-09T08:01:18.603840",
        "meta_mean_motion": 14.21439767,
        "meta_eccentricity": 0.00023153,
        "meta_inclination": 98.5778,
        "meta_ra_of_asc_node": 305.2969,
        "meta_arg_of_pericenter": 65.3395,
        "meta_mean_anomaly": 294.8023,
        "meta_ephemeris_type": 0,
        "meta_classification_type": "U",
        "meta_norad_cat_id": 64876,
        "meta_element_set_no": 999,
        "meta_rev_at_epoch": 1943,
        "meta_bstar": 9.7669134e-05,
        "meta_mean_motion_dot": 1.71e-06,
        "meta_mean_motion_ddot": 0,
        "tle_line1": "1 64876U 25155A   25343.33424310  .00000171  00000+0  97669-4 0  9995",
        "tle_line2": "2 64876  98.5778 305.2969 0002315  65.3395 294.8023 14.21439767 19432"
      },
      "geometry": {
        "type": "Point",
        "coordinates": [
          -57.55967732624223,
          19.910916138868156
        ]
      }
    },
    {
      "type": "Feature",
      "properties": {
        "norad_id": 64877,
        "name": "IONOSFERA-M 4",
        "group": "resource",
        "lat": -20.795780149181564,
        "lon": 122.20771573287347,
        "alt_km": 826.5279815592712,
        "timestamp": "2025-12-09T14:52:25.823966+00:00",
        "meta_object_name": "IONOSFERA-M 4",
        "meta_object_id": "2025-155B",
        "meta_epoch": "2025-12-09T05:29:04.965216",
        "meta_mean_motion": 14.21440809,
        "meta_eccentricity": 0.00016734,
        "meta_inclination": 98.5776,
        "meta_ra_of_asc_node": 305.1137,
        "meta_arg_of_pericenter": 67.0359,
        "meta_mean_anomaly": 293.0995,
        "meta_ephemeris_type": 0,
        "meta_classification_type": "U",
        "meta_norad_cat_id": 64877,
        "meta_element_set_no": 999,
        "meta_rev_at_epoch": 1941,
        "meta_bstar": 9.9624126e-05,
        "meta_mean_motion_dot": 1.75e-06,
        "meta_mean_motion_ddot": 0,
        "tle_line1": "1 64877U 25155B   25343.22852969  .00000175  00000+0  99624-4 0  9996",
        "tle_line2": "2 64877  98.5776 305.1137 0001673  67.0359 293.0995 14.21440809 19418"
      },
      "geometry": {
        "type": "Point",
        "coordinates": [
          122.20771573287347,
          -20.795780149181564
        ]
      }
    },
    {
      "type": "Feature",
      "properties": {
        "norad_id": 64899,
        "name": "MICROCARB",
        "group": "resource",
        "lat": 31.6425159367036,
        "lon": -116.01145310647723,
        "alt_km": 640.9344101496617,
        "timestamp": "2025-12-09T14:52:25.823977+00:00",
        "meta_object_name": "MICROCARB",
        "meta_object_id": "2025-156A",
        "meta_epoch": "2025-12-09T04:24:58.268736",
        "meta_mean_motion": 14.72047394,
        "meta_eccentricity": 0.00169148,
        "meta_inclination": 98.0028,
        "meta_ra_of_asc_node": 58.5864,
        "meta_arg_of_pericenter": 155.6667,
        "meta_mean_anomaly": 204.5342,
        "meta_ephemeris_type": 0,
        "meta_classification_type": "U",
        "meta_norad_cat_id": 64899,
        "meta_element_set_no": 999,
        "meta_rev_at_epoch": 2001,
        "meta_bstar": 0.00018901046,
        "meta_mean_motion_dot": 1.14e-05,
        "meta_mean_motion_ddot": 0,
        "tle_line1": "1 64899U 25156A   25343.18400774  .00001140  00000+0  18901-3 0  9990",
        "tle_line2": "2 64899  98.0028  58.5864 0016914 155.6667 204.5342 14.72047394 20012"
      },
      "geometry": {
        "type": "Point",
        "coordinates": [
          -116.01145310647723,
          31.6425159367036
        ]
      }
    },
    {
      "type": "Feature",
      "properties": {
        "norad_id": 64900,
        "name": "CO3D 3",
        "group": "resource",
        "lat": 9.38556972514557,
        "lon": 58.794915950263125,
        "alt_km": 507.0345713596298,
        "timestamp": "2025-12-09T14:52:25.823987+00:00",
        "meta_object_name": "CO3D 3",
        "meta_object_id": "2025-156B",
        "meta_epoch": "2025-12-08T18:17:44.446272",
        "meta_mean_motion": 15.2019842,
        "meta_eccentricity": 0.0001356,
        "meta_inclination": 97.4341,
        "meta_ra_of_asc_node": 59.1865,
        "meta_arg_of_pericenter": 106.1908,
        "meta_mean_anomaly": 253.9476,
        "meta_ephemeris_type": 0,
        "meta_classification_type": "U",
        "meta_norad_cat_id": 64900,
        "meta_element_set_no": 999,
        "meta_rev_at_epoch": 2060,
        "meta_bstar": 0.0004581347,
        "meta_mean_motion_dot": 9.862e-05,
        "meta_mean_motion_ddot": 0,
        "tle_line1": "1 64900U 25156B   25342.76231998  .00009862  00000+0  45813-3 0  9997",
        "tle_line2": "2 64900  97.4341  59.1865 0001356 106.1908 253.9476 15.20198420 20609"
      },
      "geometry": {
        "type": "Point",
        "coordinates": [
          58.794915950263125,
          9.38556972514557
        ]
      }
    },
    {
      "type": "Feature",
      "properties": {
        "norad_id": 64901,
        "name": "CO3D 4",
        "group": "resource",
        "lat": 8.572336405970379,
        "lon": 58.90404326983951,
        "alt_km": 507.7564330083105,
        "timestamp": "2025-12-09T14:52:25.823998+00:00",
        "meta_object_name": "CO3D 4",
        "meta_object_id": "2025-156C",
        "meta_epoch": "2025-12-09T06:56:14.049600",
        "meta_mean_motion": 15.20210359,
        "meta_eccentricity": 0.00010785,
        "meta_inclination": 97.4339,
        "meta_ra_of_asc_node": 59.7059,
        "meta_arg_of_pericenter": 216.2334,
        "meta_mean_anomaly": 143.8828,
        "meta_ephemeris_type": 0,
        "meta_classification_type": "U",
        "meta_norad_cat_id": 64901,
        "meta_element_set_no": 999,
        "meta_rev_at_epoch": 2068,
        "meta_bstar": 0.00043184396,
        "meta_mean_motion_dot": 9.295e-05,
        "meta_mean_motion_ddot": 0,
        "tle_line1": "1 64901U 25156C   25343.28905150  .00009295  00000+0  43184-3 0  9993",
        "tle_line2": "2 64901  97.4339  59.7059 0001078 216.2334 143.8828 15.20210359 20687"
      },
      "geometry": {
        "type": "Point",
        "coordinates": [
          58.90404326983951,
          8.572336405970379
        ]
      }
    }
  ]
}